GLOBALSTAR M001         
1 25162U 98008A   25303.16786928 -.00000110  00000+0 -10335-3 0  9999
2 25162  52.0041 300.3493 0001283 169.4589 270.7875 12.38219314260433
GLOBALSTAR M004         
1 25163U 98008B   25302.90666418 -.00000068  00000+0  19954-3 0  9999
2 25163  52.0028   3.1522 0003010 222.1691 308.6428 12.63406832278717
GLOBALSTAR M002         
1 25164U 98008C   25303.18914076 -.00000085  00000+0 -16057-3 0  9998
2 25164  52.0009 261.7089 0001960  34.2486 325.8460 11.61512503199756
GLOBALSTAR M003         
1 25165U 98008D   25303.30646230 -.00000210  00000+0 -12846-2 0  9998
2 25165  51.9907 154.2892 0007480 198.7943 333.2449 12.12051771249609
GLOBALSTAR M014         
1 25306U 98023A   25302.95544355 -.00000066  00000+0  21869-3 0  9991
2 25306  51.9820 182.6849 0000055 113.1902 353.9846 11.65482998206883
GLOBALSTAR M006         
1 25307U 98023B   25303.79109389 -.00000060  00000+0  32897-3 0  9996
2 25307  51.9933 238.1129 0003586   2.1762  18.4204 11.58177917232547
GLOBALSTAR M015         
1 25308U 98023C   25303.26003778 -.00000085  00000+0 -26045-3 0  9990
2 25308  51.9851 344.0991 0012275 316.3021 121.0226 11.48859051209605
GLOBALSTAR M008         
1 25309U 98023D   25302.94130646 -.00000070  00000+0  20866-3 0  9998
2 25309  51.9945 167.3661 0003616  93.7141 279.9353 12.36075246254516
